NORAD_CAT_ID,OBJECT_NAME,OBJECT_TYPE,EPOCH,MEAN_MOTION,ECCENTRICITY,INCLINATION,RA_OF_ASC_NODE,ARG_OF_PERICENTER,MEAN_ANOMALY,BSTAR,MEAN_MOTION_DOT,MEAN_MOTION_DDOT,TLE_LINE0,TLE_LINE1,TLE_LINE2,SEMIMAJOR_AXIS,PERIOD,APOGEE,PERIGEE,DECAYED
52534.0,STARLINK-3952,PAYLOAD,2024-06-27 21:43:48,15.08836901,0.0001677,53.218,31.4426,71.2901,288.8273,-5.0112e-05,-1.085e-05,0.0,0 STARLINK-3952,1 52534U 22051B   24179.90542687 -.00001085  00000-0 -50112-4 0  9992,2 52534  53.2180  31.4426 0001677  71.2901 288.8273 15.08836901118617,6917.89,95.438,540.915,538.595,0.0
52534.0,STARLINK-3952,PAYLOAD,2024-06-27 23:19:12,15.08808663,0.0001656,53.2178,31.1473,100.5326,259.5853,0.00044847,6.851e-05,0.0,0 STARLINK-3952,1 52534U 22051B   24179.97166969  .00006851  00000-0  44847-3 0  9995,2 52534  53.2178  31.1473 0001656 100.5326 259.5853 15.08808663117956,6917.976,95.44,540.987,538.696,0.0
52534.0,STARLINK-3952,PAYLOAD,2024-06-28 07:16:07,15.08839463,0.0001566,53.218,29.6601,88.2483,271.8689,-1.5371e-06,-3.12e-06,0.0,0 STARLINK-3952,1 52534U 22051B   24180.30286382 -.00000312  00000-0 -15371-5 0  9996,2 52534  53.2180  29.6601 0001566  88.2483 271.8689 15.08839463118003,6917.882,95.438,540.83,538.664,0.0
52534.0,STARLINK-3952,PAYLOAD,2024-06-28 21:34:33,15.0885662,0.0001344,53.2165,26.9867,98.885,261.2294,0.00035694,5.4e-05,0.0,0 STARLINK-3952,1 52534U 22051B   24180.89900439  .00005400  00000-0  35694-3 0  9995,2 52534  53.2165  26.9867 0001344  98.8850 261.2294 15.08856620118097,6917.83,95.437,540.624,538.765,0.0
52534.0,STARLINK-3952,PAYLOAD,2024-06-29 13:28:26,15.08842505,0.0001504,53.2142,24.0115,81.0282,279.0881,0.00011083,1.476e-05,0.0,0 STARLINK-3952,1 52534U 22051B   24181.56142188  .00001476  00000-0  11083-3 0  9994,2 52534  53.2142  24.0115 0001504  81.0282 279.0881 15.08842505118195,6917.873,95.437,540.778,538.697,0.0
52534.0,STARLINK-3952,PAYLOAD,2024-06-29 19:49:59,15.08839896,0.000138,53.2156,22.8183,98.4353,261.6795,5.4503e-05,5.8e-06,0.0,0 STARLINK-3952,1 52534U 22051B   24181.82638365  .00000580  00000-0  54503-4 0  9990,2 52534  53.2156  22.8183 0001380  98.4353 261.6795 15.08839896118903,6917.881,95.438,540.7,538.791,0.0
52534.0,STARLINK-3952,PAYLOAD,2024-06-30 13:19:13,15.08843588,0.0001275,53.2166,19.5472,99.1675,260.9461,3.6924e-05,3e-06,0.0,0 STARLINK-3952,1 52534U 22051B   24182.55502101  .00000300  00000-0  36924-4 0  9996,2 52534  53.2166  19.5472 0001275  99.1675 260.9461 15.08843588119014,6917.869,95.437,540.616,538.852,0.0
52534.0,STARLINK-3952,PAYLOAD,2024-06-30 19:40:46,15.0884734,0.0001388,53.218,18.3588,93.0528,267.0623,5.652e-05,6.12e-06,0.0,0 STARLINK-3952,1 52534U 22051B   24182.81997832  .00000612  00000-0  56520-4 0  9994,2 52534  53.2180  18.3588 0001388  93.0528 267.0623 15.08847340118387,6917.858,95.437,540.683,538.763,0.0
52534.0,STARLINK-3952,PAYLOAD,2024-07-01 13:10:01,15.08832096,0.0001245,53.2182,15.0874,99.3563,260.757,0.00013674,1.889e-05,0.0,0 STARLINK-3952,1 52534U 22051B   24183.54862381  .00001889  00000-0  13674-3 0  9994,2 52534  53.2182  15.0874 0001245  99.3563 260.7570 15.08832096118496,6917.905,95.438,540.631,538.908,0.0
52534.0,STARLINK-3952,PAYLOAD,2024-07-01 19:31:33,15.08836453,0.0001179,53.2175,13.8942,109.029,251.083,0.00017316,2.469e-05,0.0,0 STARLINK-3952,1 52534U 22051B   24183.81358053  .00002469  00000-0  17316-3 0  9992,2 52534  53.2175  13.8942 0001179 109.0290 251.0830 15.08836453119205,6917.891,95.438,540.572,538.941,0.0
52534.0,STARLINK-3952,PAYLOAD,2024-07-02 13:00:48,15.08835226,0.0001316,53.2161,10.6234,105.83,254.2838,-1.0084e-05,-4.48e-06,0.0,0 STARLINK-3952,1 52534U 22051B   24184.54222704 -.00000448  00000-0 -10084-4 0  9999,2 52534  53.2161  10.6234 0001316 105.8300 254.2838 15.08835226119310,6917.895,95.438,540.67,538.85,0.0
52534.0,STARLINK-3952,PAYLOAD,2024-07-02 19:22:20,15.08839028,0.0001205,53.2178,9.4384,92.6535,267.4595,5.3872e-05,5.7e-06,0.0,0 STARLINK-3952,1 52534U 22051B   24184.80718361  .00000570  00000-0  53872-4 0  9993,2 52534  53.2178   9.4384 0001205  92.6535 267.4595 15.08839028118689,6917.883,95.438,540.582,538.915,0.0
52534.0,STARLINK-3952,PAYLOAD,2024-07-03 12:51:35,15.08831549,0.000111,53.2174,6.1681,99.3626,260.7491,3.0793e-05,2.02e-06,0.0,0 STARLINK-3952,1 52534U 22051B   24185.53583075  .00000202  00000-0  30793-4 0  9995,2 52534  53.2174   6.1681 0001110  99.3626 260.7491 15.08831549118792,6917.906,95.438,540.539,539.003,0.0
52534.0,STARLINK-3952,PAYLOAD,2024-07-03 19:13:08,15.0883596,0.0001126,53.2174,4.9789,95.5972,264.5148,5.7535e-05,6.28e-06,0.0,0 STARLINK-3952,1 52534U 22051B   24185.80078866  .00000628  00000-0  57535-4 0  9997,2 52534  53.2174   4.9789 0001126  95.5972 264.5148 15.08835960119508,6917.893,95.438,540.537,538.979,0.0
52534.0,STARLINK-3952,PAYLOAD,2024-07-04 04:45:26,15.08841358,0.0001197,53.218,3.193,86.597,273.5159,2.4411e-05,1.01e-06,0.0,0 STARLINK-3952,1 52534U 22051B   24186.19822605  .00000101  00000-0  24411-4 0  9991,2 52534  53.2180   3.1930 0001197  86.5970 273.5159 15.08841358118891,6917.876,95.437,540.569,538.913,0.0
52534.0,STARLINK-3952,PAYLOAD,2024-07-04 22:14:41,15.08845454,0.0001217,53.2188,359.9227,88.1109,272.0023,0.00012773,1.746e-05,0.0,0 STARLINK-3952,1 52534U 22051B   24186.92686355  .00001746  00000-0  12773-3 0  9995,2 52534  53.2188 359.9227 0001217  88.1109 272.0023 15.08845454119677,6917.864,95.437,540.571,538.887,0.0
52534.0,STARLINK-3952,PAYLOAD,2024-07-05 04:36:13,15.08838754,0.0001043,53.217,358.7302,76.0461,284.0647,0.00011882,1.604e-05,0.0,0 STARLINK-3952,1 52534U 22051B   24187.19182801  .00001604  00000-0  11882-3 0  9995,2 52534  53.2170 358.7302 0001043  76.0461 284.0647 15.08838754119718,6917.884,95.438,540.471,539.028,0.0
52534.0,STARLINK-3952,PAYLOAD,2024-07-05 20:30:04,15.08853366,0.0001246,53.2182,355.7567,78.7056,281.4076,0.00016505,2.341e-05,0.0,0 STARLINK-3952,1 52534U 22051B   24187.85421822  .00002341  00000-0  16505-3 0  9993,2 52534  53.2182 355.7567 0001246  78.7056 281.4076 15.08853366119145,6917.84,95.437,540.566,538.843,0.0
52534.0,STARLINK-3952,PAYLOAD,2024-07-06 04:27:00,15.08841973,0.000133,53.2179,354.2711,88.2952,271.8193,1.6129e-05,-3.1e-07,0.0,0 STARLINK-3952,1 52534U 22051B   24188.18542822 -.00000031  00000-0  16129-4 0  9992,2 52534  53.2179 354.2711 0001330  88.2952 271.8193 15.08841973119190,6917.874,95.437,540.659,538.819,0.0
52534.0,STARLINK-3952,PAYLOAD,2024-07-06 10:48:33,15.08836657,0.000184,53.2192,353.084,81.9961,278.124,6.8526e-05,8.03e-06,0.0,0 STARLINK-3952,1 52534U 22051B   24188.45039329  .00000803  00000-0  68526-4 0  9999,2 52534  53.2192 353.0840 0001840  81.9961 278.1240 15.08836657119906,6917.891,95.438,541.028,538.483,0.0
52534.0,STARLINK-3952,PAYLOAD,2024-07-06 17:10:06,15.08834728,0.0001408,53.2182,351.8942,88.1926,271.9227,4.1101e-05,3.66e-06,0.0,0 STARLINK-3952,1 52534U 22051B   24188.71535386  .00000366  00000-0  41101-4 0  9996,2 52534  53.2182 351.8942 0001408  88.1926 271.9227 15.08834728119277,6917.897,95.438,540.736,538.787,0.0
52534.0,STARLINK-3952,PAYLOAD,2024-07-07 04:17:48,15.08844179,0.0001319,53.2185,349.8124,100.5055,259.6085,5.9531e-07,-2.78e-06,0.0,0 STARLINK-3952,1 52534U 22051B   24189.17902797 -.00000278  00000-0  59531-6 0  9992,2 52534  53.2185 349.8124 0001319 100.5055 259.6085 15.08844179119346,6917.868,95.437,540.645,538.82,0.0
52534.0,STARLINK-3952,PAYLOAD,2024-07-07 10:39:20,15.08839063,9.92e-05,53.2186,348.6232,93.0077,267.1029,7.5186e-05,9.09e-06,0.0,0 STARLINK-3952,1 52534U 22051B   24189.44398879  .00000909  00000-0  75186-4 0  9994,2 52534  53.2186 348.6232 0000992  93.0077 267.1029 15.08839063120058,6917.883,95.438,540.435,539.062,0.0
52534.0,STARLINK-3952,PAYLOAD,2024-07-08 13:40:54,15.08836418,0.0001446,53.2176,343.5694,83.929,276.1867,0.00012273,1.666e-05,0.0,0 STARLINK-3952,1 52534U 22051B   24190.57007077  .00001666  00000-0  12273-3 0  9995,2 52534  53.2176 343.5694 0001446  83.9290 276.1867 15.08836418119557,6917.891,95.438,540.757,538.756,0.0
52534.0,STARLINK-3952,PAYLOAD,2024-07-08 16:51:40,15.08838988,0.0001523,53.2176,342.9743,85.1923,274.9243,0.00013468,1.856e-05,0.0,0 STARLINK-3952,1 52534U 22051B   24190.70254910  .00001856  00000-0  13468-3 0  9998,2 52534  53.2176 342.9743 0001523  85.1923 274.9243 15.08838988120244,6917.883,95.438,540.802,538.695,0.0
52534.0,STARLINK-3952,PAYLOAD,2024-07-09 13:31:41,15.08840632,0.0001592,53.2187,339.1083,88.4088,271.7087,3.0013e-05,1.9e-06,0.0,0 STARLINK-3952,1 52534U 22051B   24191.56367115  .00000190  00000-0  30013-4 0  9991,2 52534  53.2187 339.1083 0001592  88.4088 271.7087 15.08840632120379,6917.878,95.438,540.845,538.642,0.0
52534.0,STARLINK-3952,PAYLOAD,2024-07-09 19:53:12,15.08850102,0.0001244,53.2182,337.9136,102.0991,258.0141,2.7437e-05,1.49e-06,0.0,0 STARLINK-3952,1 52534U 22051B   24191.82862257  .00000149  00000-0  27437-4 0  9997,2 52534  53.2182 337.9136 0001244 102.0991 258.0141 15.08850102119740,6917.85,95.437,540.575,538.854,0.0
52534.0,STARLINK-3952,PAYLOAD,2024-07-10 02:14:45,15.0884687,0.0001405,53.2187,336.7279,81.2677,278.8474,1.8165e-05,1e-08,0.0,0 STARLINK-3952,1 52534U 22051B   24192.09358575  .00000001  00000-0  18165-4 0  9995,2 52534  53.2187 336.7279 0001405  81.2677 278.8474 15.08846870120454,6917.859,95.437,540.696,538.752,0.0
52534.0,STARLINK-3952,PAYLOAD,2024-07-10 19:44:00,15.08839565,0.0001465,53.2201,333.4559,88.2237,271.8923,9.2234e-06,-1.41e-06,0.0,0 STARLINK-3952,1 52534U 22051B   24192.82223188 -.00000141  00000-0  92234-5 0  9993,2 52534  53.2201 333.4559 0001465  88.2237 271.8923 15.08839565119892,6917.882,95.438,540.76,538.733,0.0
52534.0,STARLINK-3952,PAYLOAD,2024-07-11 13:13:15,15.08836683,0.0001321,53.2187,330.1841,91.8901,268.2242,7.7332e-06,-1.65e-06,0.0,0 STARLINK-3952,1 52534U 22051B   24193.55087533 -.00000165  00000-0  77332-5 0  9994,2 52534  53.2187 330.1841 0001321  91.8901 268.2242 15.08836683120672,6917.891,95.438,540.669,538.842,0.0
